<?xml version="1.0" encoding="UTF-8"?>
<gpx creator="StravaGPX" version="1.1" xmlns="http://www.topografix.com/GPX/1/1" xmlns:xsi="http://www.w3.org/2001/XMLSchema-instance" xsi:schemaLocation="http://www.topografix.com/GPX/1/1 http://www.topografix.com/GPX/1/1/gpx.xsd">
 <metadata>
  <name>Tsitsikamma Lite (2027)</name>
  <author>
   <name>Johnny Wolf</name>
   <link href="https://www.strava.com/athletes/90010919"/>
  </author>
  <copyright author="OpenStreetMap contributors">
   <year>2020</year>
   <license>https://www.openstreetmap.org/copyright</license>
  </copyright>
  <link href="https://www.strava.com/routes/3514274566687394442"/>
 </metadata>
 <trk>
  <name>Tsitsikamma Lite (2027)</name>
  <link href="https://www.strava.com/routes/3514274566687394442"/>
  <type>running</type>
  <trkseg>
   <trkpt lat="-33.964330000000004" lon="23.749270000000003">
    <ele>250.99000000000004</ele>
   </trkpt>
   <trkpt lat="-33.96376" lon="23.749180000000003">
    <ele>254.03000000000003</ele>
   </trkpt>
   <trkpt lat="-33.96307249999732" lon="23.74916999975748">
    <ele>258.03000000000003</ele>
   </trkpt>
   <trkpt lat="-33.96238499999382" lon="23.749159999676603">
    <ele>262.51</ele>
   </trkpt>
   <trkpt lat="-33.96169749998952" lon="23.74914999975737">
    <ele>263.45</ele>
   </trkpt>
   <trkpt lat="-33.96101" lon="23.74914">
    <ele>264.53000000000003</ele>
   </trkpt>
   <trkpt lat="-33.96076" lon="23.749170000000003">
    <ele>264.89</ele>
   </trkpt>
   <trkpt lat="-33.96013" lon="23.749350000000003">
    <ele>266.09000000000003</ele>
   </trkpt>
   <trkpt lat="-33.95926" lon="23.749560000000002">
    <ele>267.71</ele>
   </trkpt>
   <trkpt lat="-33.95913" lon="23.74958">
    <ele>267.71</ele>
   </trkpt>
   <trkpt lat="-33.95893" lon="23.74958">
    <ele>268.48</ele>
   </trkpt>
   <trkpt lat="-33.95857" lon="23.749550000000003">
    <ele>269.11</ele>
   </trkpt>
   <trkpt lat="-33.95796" lon="23.749460000000003">
    <ele>269.49</ele>
   </trkpt>
   <trkpt lat="-33.95772" lon="23.749370000000003">
    <ele>269.6</ele>
   </trkpt>
   <trkpt lat="-33.9572" lon="23.74905">
    <ele>269.77</ele>
   </trkpt>
   <trkpt lat="-33.957060000000006" lon="23.749000000000002">
    <ele>269.49</ele>
   </trkpt>
   <trkpt lat="-33.95684" lon="23.749010000000002">
    <ele>269.12</ele>
   </trkpt>
   <trkpt lat="-33.95627999995281" lon="23.749110000673817">
    <ele>266.79</ele>
   </trkpt>
   <trkpt lat="-33.95572" lon="23.74921">
    <ele>263.33</ele>
   </trkpt>
   <trkpt lat="-33.95525" lon="23.749270000000003">
    <ele>262.29</ele>
   </trkpt>
   <trkpt lat="-33.95469" lon="23.749270000000003">
    <ele>262.76000000000005</ele>
   </trkpt>
   <trkpt lat="-33.95456" lon="23.74924">
    <ele>263.37000000000006</ele>
   </trkpt>
   <trkpt lat="-33.9542" lon="23.74904">
    <ele>266.40000000000003</ele>
   </trkpt>
   <trkpt lat="-33.95402" lon="23.74896">
    <ele>266.82</ele>
   </trkpt>
   <trkpt lat="-33.95358" lon="23.748990000000003">
    <ele>266.22</ele>
   </trkpt>
   <trkpt lat="-33.95349" lon="23.74895">
    <ele>266.0</ele>
   </trkpt>
   <trkpt lat="-33.95326" lon="23.748700000000003">
    <ele>263.18</ele>
   </trkpt>
   <trkpt lat="-33.95308" lon="23.74839">
    <ele>263.46000000000004</ele>
   </trkpt>
   <trkpt lat="-33.95293" lon="23.748220000000003">
    <ele>264.96000000000004</ele>
   </trkpt>
   <trkpt lat="-33.95264" lon="23.747960000000003">
    <ele>268.11</ele>
   </trkpt>
   <trkpt lat="-33.95262" lon="23.747950000000003">
    <ele>268.31000000000006</ele>
   </trkpt>
   <trkpt lat="-33.95228" lon="23.747660000000003">
    <ele>270.12</ele>
   </trkpt>
   <trkpt lat="-33.95156" lon="23.74718">
    <ele>266.76</ele>
   </trkpt>
   <trkpt lat="-33.95105" lon="23.74649">
    <ele>266.39</ele>
   </trkpt>
   <trkpt lat="-33.95075" lon="23.74605">
    <ele>263.22</ele>
   </trkpt>
   <trkpt lat="-33.95055" lon="23.74555">
    <ele>266.05</ele>
   </trkpt>
   <trkpt lat="-33.95024" lon="23.7449">
    <ele>264.34000000000003</ele>
   </trkpt>
   <trkpt lat="-33.94988" lon="23.744000000000003">
    <ele>263.53999999999996</ele>
   </trkpt>
   <trkpt lat="-33.94986" lon="23.743730000000003">
    <ele>262.85</ele>
   </trkpt>
   <trkpt lat="-33.9499" lon="23.743380000000002">
    <ele>261.73</ele>
   </trkpt>
   <trkpt lat="-33.94995" lon="23.74311">
    <ele>260.81000000000006</ele>
   </trkpt>
   <trkpt lat="-33.94995" lon="23.742910000000002">
    <ele>260.38</ele>
   </trkpt>
   <trkpt lat="-33.94993" lon="23.742770000000004">
    <ele>260.18</ele>
   </trkpt>
   <trkpt lat="-33.94979" lon="23.742440000000002">
    <ele>260.93</ele>
   </trkpt>
   <trkpt lat="-33.94975" lon="23.74229">
    <ele>261.90000000000003</ele>
   </trkpt>
   <trkpt lat="-33.94967000164965" lon="23.741649999348432">
    <ele>264.49</ele>
   </trkpt>
   <trkpt lat="-33.94959" lon="23.741010000000003">
    <ele>265.54</ele>
   </trkpt>
   <trkpt lat="-33.94952" lon="23.740730000000003">
    <ele>266.13000000000005</ele>
   </trkpt>
   <trkpt lat="-33.94939" lon="23.740460000000002">
    <ele>266.72</ele>
   </trkpt>
   <trkpt lat="-33.949270000000006" lon="23.740260000000003">
    <ele>266.97</ele>
   </trkpt>
   <trkpt lat="-33.94881500111137" lon="23.73972999713834">
    <ele>273.22</ele>
   </trkpt>
   <trkpt lat="-33.94836" lon="23.7392">
    <ele>276.96000000000004</ele>
   </trkpt>
   <trkpt lat="-33.94798" lon="23.738660000000003">
    <ele>280.73</ele>
   </trkpt>
   <trkpt lat="-33.94758" lon="23.738200000000003">
    <ele>280.29</ele>
   </trkpt>
   <trkpt lat="-33.94722" lon="23.737740000000002">
    <ele>280.96000000000004</ele>
   </trkpt>
   <trkpt lat="-33.947455002379264" lon="23.73697000218365">
    <ele>279.72</ele>
   </trkpt>
   <trkpt lat="-33.94769" lon="23.7362">
    <ele>278.01000000000005</ele>
   </trkpt>
   <trkpt lat="-33.9468900009001" lon="23.735866660401374">
    <ele>278.37</ele>
   </trkpt>
   <trkpt lat="-33.946090000901805" lon="23.735533327068858">
    <ele>279.36</ele>
   </trkpt>
   <trkpt lat="-33.94529" lon="23.735200000000003">
    <ele>280.03</ele>
   </trkpt>
   <trkpt lat="-33.945280000000004" lon="23.735200000000003">
    <ele>280.03</ele>
   </trkpt>
   <trkpt lat="-33.94444000194308" lon="23.734851986257578">
    <ele>280.96000000000004</ele>
   </trkpt>
   <trkpt lat="-33.94360000290697" lon="23.73450397938357">
    <ele>281.87</ele>
   </trkpt>
   <trkpt lat="-33.94276000289177" lon="23.734155979377636">
    <ele>282.56</ele>
   </trkpt>
   <trkpt lat="-33.94192000189749" lon="23.733807986239423">
    <ele>283.93</ele>
   </trkpt>
   <trkpt lat="-33.94108" lon="23.73346">
    <ele>286.46999999999997</ele>
   </trkpt>
   <trkpt lat="-33.94097" lon="23.73344">
    <ele>286.78000000000003</ele>
   </trkpt>
   <trkpt lat="-33.94086" lon="23.73346">
    <ele>287.49</ele>
   </trkpt>
   <trkpt lat="-33.94073" lon="23.733530000000002">
    <ele>288.46000000000004</ele>
   </trkpt>
   <trkpt lat="-33.94039" lon="23.733890000000002">
    <ele>292.55</ele>
   </trkpt>
   <trkpt lat="-33.94021" lon="23.734140000000004">
    <ele>295.83000000000004</ele>
   </trkpt>
   <trkpt lat="-33.94012" lon="23.734360000000002">
    <ele>297.54</ele>
   </trkpt>
   <trkpt lat="-33.94008" lon="23.734530000000003">
    <ele>298.99</ele>
   </trkpt>
   <trkpt lat="-33.94003500124492" lon="23.735090000578616">
    <ele>301.50000000000006</ele>
   </trkpt>
   <trkpt lat="-33.93999" lon="23.735650000000003">
    <ele>302.58</ele>
   </trkpt>
   <trkpt lat="-33.93996" lon="23.735850000000003">
    <ele>302.27000000000004</ele>
   </trkpt>
   <trkpt lat="-33.93988" lon="23.736130000000003">
    <ele>302.26000000000005</ele>
   </trkpt>
   <trkpt lat="-33.93994" lon="23.73684">
    <ele>305.11</ele>
   </trkpt>
   <trkpt lat="-33.93988" lon="23.736970000000003">
    <ele>305.99</ele>
   </trkpt>
   <trkpt lat="-33.93965" lon="23.7372">
    <ele>307.70000000000005</ele>
   </trkpt>
   <trkpt lat="-33.93958" lon="23.73742">
    <ele>308.6</ele>
   </trkpt>
   <trkpt lat="-33.93958" lon="23.7375">
    <ele>308.85</ele>
   </trkpt>
   <trkpt lat="-33.93961" lon="23.737640000000003">
    <ele>309.42</ele>
   </trkpt>
   <trkpt lat="-33.9397" lon="23.737840000000002">
    <ele>310.89</ele>
   </trkpt>
   <trkpt lat="-33.93976" lon="23.73807">
    <ele>311.96000000000004</ele>
   </trkpt>
   <trkpt lat="-33.93976" lon="23.738310000000002">
    <ele>312.29</ele>
   </trkpt>
   <trkpt lat="-33.93972" lon="23.738470000000003">
    <ele>312.99000000000007</ele>
   </trkpt>
   <trkpt lat="-33.93958" lon="23.73835">
    <ele>314.83</ele>
   </trkpt>
   <trkpt lat="-33.93917000092588" lon="23.737869997682143">
    <ele>316.3</ele>
   </trkpt>
   <trkpt lat="-33.93876" lon="23.73739">
    <ele>315.12</ele>
   </trkpt>
   <trkpt lat="-33.938480000000006" lon="23.73713">
    <ele>315.07</ele>
   </trkpt>
   <trkpt lat="-33.93811" lon="23.73685">
    <ele>315.6</ele>
   </trkpt>
   <trkpt lat="-33.937990000000006" lon="23.736790000000003">
    <ele>316.24</ele>
   </trkpt>
   <trkpt lat="-33.937940000000005" lon="23.736770000000003">
    <ele>316.52000000000004</ele>
   </trkpt>
   <trkpt lat="-33.93766" lon="23.73666">
    <ele>318.17</ele>
   </trkpt>
   <trkpt lat="-33.93703499998444" lon="23.736524998989786">
    <ele>321.02000000000004</ele>
   </trkpt>
   <trkpt lat="-33.93641" lon="23.736390000000004">
    <ele>321.38</ele>
   </trkpt>
   <trkpt lat="-33.93603" lon="23.736250000000002">
    <ele>320.45</ele>
   </trkpt>
   <trkpt lat="-33.93549" lon="23.736020000000003">
    <ele>320.58000000000004</ele>
   </trkpt>
   <trkpt lat="-33.93495" lon="23.73571">
    <ele>320.67</ele>
   </trkpt>
   <trkpt lat="-33.93453" lon="23.73544">
    <ele>321.23</ele>
   </trkpt>
   <trkpt lat="-33.93410000031696" lon="23.735114998275776">
    <ele>323.77</ele>
   </trkpt>
   <trkpt lat="-33.93367" lon="23.73479">
    <ele>324.07</ele>
   </trkpt>
   <trkpt lat="-33.93294" lon="23.734270000000002">
    <ele>320.57</ele>
   </trkpt>
   <trkpt lat="-33.93289" lon="23.73419">
    <ele>319.43000000000006</ele>
   </trkpt>
   <trkpt lat="-33.93276" lon="23.73354">
    <ele>310.54</ele>
   </trkpt>
   <trkpt lat="-33.932660000000006" lon="23.732850000000003">
    <ele>306.00000000000006</ele>
   </trkpt>
   <trkpt lat="-33.9326" lon="23.73233">
    <ele>302.97</ele>
   </trkpt>
   <trkpt lat="-33.93262" lon="23.732120000000002">
    <ele>300.91</ele>
   </trkpt>
   <trkpt lat="-33.9327766712974" lon="23.731363336104994">
    <ele>295.3</ele>
   </trkpt>
   <trkpt lat="-33.93293333796665" lon="23.730606669425907">
    <ele>287.90999999999997</ele>
   </trkpt>
   <trkpt lat="-33.93309" lon="23.729850000000003">
    <ele>284.78000000000003</ele>
   </trkpt>
   <trkpt lat="-33.93309" lon="23.72969">
    <ele>284.22</ele>
   </trkpt>
   <trkpt lat="-33.93307" lon="23.7295">
    <ele>284.0</ele>
   </trkpt>
   <trkpt lat="-33.93285" lon="23.729290000000002">
    <ele>285.38</ele>
   </trkpt>
   <trkpt lat="-33.93276" lon="23.729300000000002">
    <ele>286.02</ele>
   </trkpt>
   <trkpt lat="-33.93273" lon="23.729390000000002">
    <ele>287.19</ele>
   </trkpt>
   <trkpt lat="-33.93273" lon="23.729570000000002">
    <ele>289.34000000000003</ele>
   </trkpt>
   <trkpt lat="-33.93269" lon="23.729760000000002">
    <ele>291.95000000000005</ele>
   </trkpt>
   <trkpt lat="-33.93264" lon="23.7299">
    <ele>293.1</ele>
   </trkpt>
   <trkpt lat="-33.93249" lon="23.730150000000002">
    <ele>296.13</ele>
   </trkpt>
   <trkpt lat="-33.93238" lon="23.730220000000003">
    <ele>298.61</ele>
   </trkpt>
   <trkpt lat="-33.93224" lon="23.730220000000003">
    <ele>298.61</ele>
   </trkpt>
   <trkpt lat="-33.93195" lon="23.730120000000003">
    <ele>302.92</ele>
   </trkpt>
   <trkpt lat="-33.9317" lon="23.72998">
    <ele>304.34</ele>
   </trkpt>
   <trkpt lat="-33.93123" lon="23.7296">
    <ele>307.43</ele>
   </trkpt>
   <trkpt lat="-33.93074" lon="23.729280000000003">
    <ele>312.68</ele>
   </trkpt>
   <trkpt lat="-33.9305" lon="23.729190000000003">
    <ele>318.15000000000003</ele>
   </trkpt>
   <trkpt lat="-33.93014" lon="23.72912">
    <ele>322.15999999999997</ele>
   </trkpt>
   <trkpt lat="-33.92982" lon="23.729090000000003">
    <ele>325.81000000000006</ele>
   </trkpt>
   <trkpt lat="-33.92962" lon="23.729110000000002">
    <ele>327.8</ele>
   </trkpt>
   <trkpt lat="-33.92956" lon="23.72915">
    <ele>328.14000000000004</ele>
   </trkpt>
   <trkpt lat="-33.92953" lon="23.72924">
    <ele>328.18</ele>
   </trkpt>
   <trkpt lat="-33.92949" lon="23.73008">
    <ele>326.24</ele>
   </trkpt>
   <trkpt lat="-33.92947" lon="23.73037">
    <ele>326.42</ele>
   </trkpt>
   <trkpt lat="-33.92938" lon="23.73054">
    <ele>326.93000000000006</ele>
   </trkpt>
   <trkpt lat="-33.92924" lon="23.73065">
    <ele>328.31000000000006</ele>
   </trkpt>
   <trkpt lat="-33.928960000000004" lon="23.73081">
    <ele>330.09000000000003</ele>
   </trkpt>
   <trkpt lat="-33.929010000000005" lon="23.730780000000003">
    <ele>329.8</ele>
   </trkpt>
   <trkpt lat="-33.92828" lon="23.7312">
    <ele>333.9800000000001</ele>
   </trkpt>
   <trkpt lat="-33.92792" lon="23.73138">
    <ele>335.09000000000003</ele>
   </trkpt>
   <trkpt lat="-33.9275" lon="23.731520000000003">
    <ele>340.80000000000007</ele>
   </trkpt>
   <trkpt lat="-33.92721" lon="23.73159">
    <ele>344.27000000000004</ele>
   </trkpt>
   <trkpt lat="-33.92694" lon="23.7316">
    <ele>345.88</ele>
   </trkpt>
   <trkpt lat="-33.92674" lon="23.731550000000002">
    <ele>346.19000000000005</ele>
   </trkpt>
   <trkpt lat="-33.92653" lon="23.731450000000002">
    <ele>347.12</ele>
   </trkpt>
   <trkpt lat="-33.92584" lon="23.730890000000002">
    <ele>352.15000000000003</ele>
   </trkpt>
   <trkpt lat="-33.92544" lon="23.73066">
    <ele>357.74</ele>
   </trkpt>
   <trkpt lat="-33.92501" lon="23.730510000000002">
    <ele>360.58</ele>
   </trkpt>
   <trkpt lat="-33.92477" lon="23.73035">
    <ele>362.43</ele>
   </trkpt>
   <trkpt lat="-33.92432" lon="23.72997">
    <ele>369.04</ele>
   </trkpt>
   <trkpt lat="-33.92403" lon="23.729830000000003">
    <ele>370.83000000000004</ele>
   </trkpt>
   <trkpt lat="-33.9236" lon="23.72933">
    <ele>372.6700000000001</ele>
   </trkpt>
   <trkpt lat="-33.92329" lon="23.72904">
    <ele>376.62</ele>
   </trkpt>
   <trkpt lat="-33.92271" lon="23.728710000000003">
    <ele>377.79</ele>
   </trkpt>
   <trkpt lat="-33.92241" lon="23.72847">
    <ele>376.76000000000005</ele>
   </trkpt>
   <trkpt lat="-33.92208" lon="23.728080000000002">
    <ele>380.33000000000004</ele>
   </trkpt>
   <trkpt lat="-33.92203" lon="23.72794">
    <ele>380.8</ele>
   </trkpt>
   <trkpt lat="-33.92197" lon="23.72735">
    <ele>384.37000000000006</ele>
   </trkpt>
   <trkpt lat="-33.92192" lon="23.727140000000002">
    <ele>383.91</ele>
   </trkpt>
   <trkpt lat="-33.92188" lon="23.72709">
    <ele>383.79</ele>
   </trkpt>
   <trkpt lat="-33.92179" lon="23.72707">
    <ele>383.71999999999997</ele>
   </trkpt>
   <trkpt lat="-33.92177" lon="23.727110000000003">
    <ele>383.77000000000004</ele>
   </trkpt>
   <trkpt lat="-33.9217" lon="23.727290000000004">
    <ele>384.31000000000006</ele>
   </trkpt>
   <trkpt lat="-33.92163" lon="23.72737">
    <ele>385.13</ele>
   </trkpt>
   <trkpt lat="-33.92121" lon="23.72766">
    <ele>385.6</ele>
   </trkpt>
   <trkpt lat="-33.92103" lon="23.72781">
    <ele>385.91</ele>
   </trkpt>
   <trkpt lat="-33.921040000000005" lon="23.727800000000002">
    <ele>385.84000000000003</ele>
   </trkpt>
   <trkpt lat="-33.92078" lon="23.72802">
    <ele>386.35</ele>
   </trkpt>
   <trkpt lat="-33.92051" lon="23.728140000000003">
    <ele>386.75000000000006</ele>
   </trkpt>
   <trkpt lat="-33.92029" lon="23.728440000000003">
    <ele>387.29</ele>
   </trkpt>
   <trkpt lat="-33.91989" lon="23.728630000000003">
    <ele>387.99000000000007</ele>
   </trkpt>
   <trkpt lat="-33.91971" lon="23.728620000000003">
    <ele>388.04</ele>
   </trkpt>
   <trkpt lat="-33.91948" lon="23.728440000000003">
    <ele>388.19000000000005</ele>
   </trkpt>
   <trkpt lat="-33.91935" lon="23.72837">
    <ele>388.04</ele>
   </trkpt>
   <trkpt lat="-33.91919" lon="23.728340000000003">
    <ele>388.0</ele>
   </trkpt>
   <trkpt lat="-33.91861" lon="23.728330000000003">
    <ele>386.32000000000005</ele>
   </trkpt>
   <trkpt lat="-33.9183" lon="23.728250000000003">
    <ele>386.0</ele>
   </trkpt>
   <trkpt lat="-33.91816" lon="23.728180000000002">
    <ele>386.05</ele>
   </trkpt>
   <trkpt lat="-33.91796" lon="23.727980000000002">
    <ele>385.67</ele>
   </trkpt>
   <trkpt lat="-33.91748000140914" lon="23.7274049968485">
    <ele>388.58000000000004</ele>
   </trkpt>
   <trkpt lat="-33.917" lon="23.726830000000003">
    <ele>391.19000000000005</ele>
   </trkpt>
   <trkpt lat="-33.91662" lon="23.72643">
    <ele>390.59000000000003</ele>
   </trkpt>
   <trkpt lat="-33.91648" lon="23.726200000000002">
    <ele>391.29</ele>
   </trkpt>
   <trkpt lat="-33.91610000269495" lon="23.725384996389074">
    <ele>398.56</ele>
   </trkpt>
   <trkpt lat="-33.91572" lon="23.724570000000003">
    <ele>406.46000000000004</ele>
   </trkpt>
   <trkpt lat="-33.91563" lon="23.724220000000003">
    <ele>409.26</ele>
   </trkpt>
   <trkpt lat="-33.91559" lon="23.723740000000003">
    <ele>414.29</ele>
   </trkpt>
   <trkpt lat="-33.91559" lon="23.72312">
    <ele>420.21000000000004</ele>
   </trkpt>
   <trkpt lat="-33.915465001543815" lon="23.722514999426135">
    <ele>424.62000000000006</ele>
   </trkpt>
   <trkpt lat="-33.91534" lon="23.72191">
    <ele>425.86</ele>
   </trkpt>
   <trkpt lat="-33.91527" lon="23.7218">
    <ele>426.42</ele>
   </trkpt>
   <trkpt lat="-33.91521" lon="23.721770000000003">
    <ele>427.23</ele>
   </trkpt>
   <trkpt lat="-33.91507" lon="23.721770000000003">
    <ele>429.57</ele>
   </trkpt>
   <trkpt lat="-33.91496" lon="23.72183">
    <ele>430.08</ele>
   </trkpt>
   <trkpt lat="-33.91483" lon="23.721980000000002">
    <ele>431.70000000000005</ele>
   </trkpt>
   <trkpt lat="-33.91469" lon="23.722080000000002">
    <ele>433.18</ele>
   </trkpt>
   <trkpt lat="-33.91458" lon="23.72209">
    <ele>433.18</ele>
   </trkpt>
   <trkpt lat="-33.91445" lon="23.72201">
    <ele>437.58000000000004</ele>
   </trkpt>
   <trkpt lat="-33.91433" lon="23.721790000000002">
    <ele>439.4</ele>
   </trkpt>
   <trkpt lat="-33.91424" lon="23.721420000000002">
    <ele>443.00000000000006</ele>
   </trkpt>
   <trkpt lat="-33.91418" lon="23.720630000000003">
    <ele>452.14000000000004</ele>
   </trkpt>
   <trkpt lat="-33.91418" lon="23.720380000000002">
    <ele>454.57</ele>
   </trkpt>
   <trkpt lat="-33.91422" lon="23.72005">
    <ele>456.74</ele>
   </trkpt>
   <trkpt lat="-33.914245001341804" lon="23.71947500003397">
    <ele>463.17</ele>
   </trkpt>
   <trkpt lat="-33.91427" lon="23.7189">
    <ele>469.32</ele>
   </trkpt>
   <trkpt lat="-33.91438" lon="23.718380000000003">
    <ele>475.74000000000007</ele>
   </trkpt>
   <trkpt lat="-33.9144" lon="23.718320000000002">
    <ele>476.26</ele>
   </trkpt>
   <trkpt lat="-33.91457000258553" lon="23.71752000159839">
    <ele>483.81</ele>
   </trkpt>
   <trkpt lat="-33.91474" lon="23.716720000000002">
    <ele>492.7900000000001</ele>
   </trkpt>
   <trkpt lat="-33.91483" lon="23.715680000000003">
    <ele>506.37</ele>
   </trkpt>
   <trkpt lat="-33.91483" lon="23.71517">
    <ele>512.96</ele>
   </trkpt>
   <trkpt lat="-33.91485" lon="23.714750000000002">
    <ele>516.48</ele>
   </trkpt>
   <trkpt lat="-33.91483" lon="23.7145">
    <ele>517.5500000000001</ele>
   </trkpt>
   <trkpt lat="-33.91478" lon="23.714180000000002">
    <ele>519.4100000000001</ele>
   </trkpt>
   <trkpt lat="-33.91472500132155" lon="23.713604999478186">
    <ele>527.39</ele>
   </trkpt>
   <trkpt lat="-33.91467" lon="23.713030000000003">
    <ele>532.6200000000001</ele>
   </trkpt>
   <trkpt lat="-33.91476" lon="23.712030000000002">
    <ele>540.0200000000001</ele>
   </trkpt>
   <trkpt lat="-33.91474" lon="23.7115">
    <ele>537.59</ele>
   </trkpt>
   <trkpt lat="-33.91476" lon="23.710800000000003">
    <ele>534.0</ele>
   </trkpt>
   <trkpt lat="-33.91469" lon="23.710410000000003">
    <ele>537.95</ele>
   </trkpt>
   <trkpt lat="-33.91478" lon="23.710020000000004">
    <ele>540.3100000000001</ele>
   </trkpt>
   <trkpt lat="-33.91474" lon="23.70972">
    <ele>544.44</ele>
   </trkpt>
   <trkpt lat="-33.91467" lon="23.709590000000002">
    <ele>545.94</ele>
   </trkpt>
   <trkpt lat="-33.91449" lon="23.709500000000002">
    <ele>546.8000000000001</ele>
   </trkpt>
   <trkpt lat="-33.914260000000006" lon="23.70945">
    <ele>546.0</ele>
   </trkpt>
   <trkpt lat="-33.91391" lon="23.709500000000002">
    <ele>541.62</ele>
   </trkpt>
   <trkpt lat="-33.91368" lon="23.709560000000003">
    <ele>538.1100000000001</ele>
   </trkpt>
   <trkpt lat="-33.91333" lon="23.7097">
    <ele>532.2300000000001</ele>
   </trkpt>
   <trkpt lat="-33.91299" lon="23.70989">
    <ele>527.2600000000001</ele>
   </trkpt>
   <trkpt lat="-33.91281" lon="23.71011">
    <ele>525.0</ele>
   </trkpt>
   <trkpt lat="-33.91274" lon="23.710250000000002">
    <ele>525.0</ele>
   </trkpt>
   <trkpt lat="-33.91261" lon="23.71039">
    <ele>525.0</ele>
   </trkpt>
   <trkpt lat="-33.91248" lon="23.71048">
    <ele>525.0</ele>
   </trkpt>
   <trkpt lat="-33.91212" lon="23.710610000000003">
    <ele>509.29</ele>
   </trkpt>
   <trkpt lat="-33.91131" lon="23.71084">
    <ele>509.29</ele>
   </trkpt>
   <trkpt lat="-33.91133" lon="23.71083">
    <ele>509.38000000000005</ele>
   </trkpt>
   <trkpt lat="-33.91062" lon="23.71104">
    <ele>509.38000000000005</ele>
   </trkpt>
   <trkpt lat="-33.91044" lon="23.711060000000003">
    <ele>493.99</ele>
   </trkpt>
   <trkpt lat="-33.91013" lon="23.711000000000002">
    <ele>493.99</ele>
   </trkpt>
   <trkpt lat="-33.90974" lon="23.71084">
    <ele>493.99</ele>
   </trkpt>
   <trkpt lat="-33.90934000045722" lon="23.710504998431052">
    <ele>493.2900000000001</ele>
   </trkpt>
   <trkpt lat="-33.90894" lon="23.71017">
    <ele>492.65000000000003</ele>
   </trkpt>
   <trkpt lat="-33.90874" lon="23.70998">
    <ele>491.64</ele>
   </trkpt>
   <trkpt lat="-33.90804" lon="23.70932">
    <ele>488.67</ele>
   </trkpt>
   <trkpt lat="-33.90789" lon="23.709120000000002">
    <ele>488.40000000000003</ele>
   </trkpt>
   <trkpt lat="-33.90768500097814" lon="23.708634998899292">
    <ele>487.33000000000004</ele>
   </trkpt>
   <trkpt lat="-33.90748" lon="23.708150000000003">
    <ele>486.7</ele>
   </trkpt>
   <trkpt lat="-33.90719" lon="23.70756">
    <ele>485.96000000000004</ele>
   </trkpt>
   <trkpt lat="-33.90686" lon="23.706760000000003">
    <ele>484.4700000000001</ele>
   </trkpt>
   <trkpt lat="-33.90657" lon="23.70616">
    <ele>483.86</ele>
   </trkpt>
   <trkpt lat="-33.90634" lon="23.70559">
    <ele>486.1</ele>
   </trkpt>
   <trkpt lat="-33.90614" lon="23.70523">
    <ele>491.73</ele>
   </trkpt>
   <trkpt lat="-33.90583" lon="23.70501">
    <ele>499.88000000000005</ele>
   </trkpt>
   <trkpt lat="-33.90554" lon="23.705070000000003">
    <ele>505.31</ele>
   </trkpt>
   <trkpt lat="-33.90529" lon="23.705260000000003">
    <ele>509.15</ele>
   </trkpt>
   <trkpt lat="-33.90516" lon="23.70549">
    <ele>509.70000000000005</ele>
   </trkpt>
   <trkpt lat="-33.905" lon="23.705560000000002">
    <ele>508.85</ele>
   </trkpt>
   <trkpt lat="-33.90484" lon="23.70568">
    <ele>508.39</ele>
   </trkpt>
   <trkpt lat="-33.904770000000006" lon="23.70576">
    <ele>508.36</ele>
   </trkpt>
   <trkpt lat="-33.90478" lon="23.705750000000002">
    <ele>508.3500000000001</ele>
   </trkpt>
   <trkpt lat="-33.90446" lon="23.70617">
    <ele>512.0300000000001</ele>
   </trkpt>
   <trkpt lat="-33.90424" lon="23.706080000000004">
    <ele>518.03</ele>
   </trkpt>
   <trkpt lat="-33.90413" lon="23.70597">
    <ele>521.07</ele>
   </trkpt>
   <trkpt lat="-33.90395" lon="23.705910000000003">
    <ele>523.0400000000001</ele>
   </trkpt>
   <trkpt lat="-33.90357" lon="23.706010000000003">
    <ele>526.85</ele>
   </trkpt>
   <trkpt lat="-33.90332" lon="23.705890000000004">
    <ele>526.5500000000001</ele>
   </trkpt>
   <trkpt lat="-33.90301" lon="23.705240000000003">
    <ele>535.59</ele>
   </trkpt>
   <trkpt lat="-33.90301" lon="23.7051">
    <ele>538.1600000000001</ele>
   </trkpt>
   <trkpt lat="-33.902820000000006" lon="23.70466">
    <ele>546.0</ele>
   </trkpt>
   <trkpt lat="-33.90281" lon="23.704030000000003">
    <ele>546.71</ele>
   </trkpt>
   <trkpt lat="-33.90294" lon="23.70315">
    <ele>538.3800000000001</ele>
   </trkpt>
   <trkpt lat="-33.90292" lon="23.70286">
    <ele>536.37</ele>
   </trkpt>
   <trkpt lat="-33.90292" lon="23.702720000000003">
    <ele>535.63</ele>
   </trkpt>
   <trkpt lat="-33.90314" lon="23.70202">
    <ele>531.71</ele>
   </trkpt>
   <trkpt lat="-33.90316" lon="23.70172">
    <ele>531.21</ele>
   </trkpt>
   <trkpt lat="-33.9031" lon="23.70156">
    <ele>531.0100000000001</ele>
   </trkpt>
   <trkpt lat="-33.90314" lon="23.701410000000003">
    <ele>530.95</ele>
   </trkpt>
   <trkpt lat="-33.90312" lon="23.70117">
    <ele>531.49</ele>
   </trkpt>
   <trkpt lat="-33.90285" lon="23.700300000000002">
    <ele>535.95</ele>
   </trkpt>
   <trkpt lat="-33.90272" lon="23.70003">
    <ele>536.6200000000001</ele>
   </trkpt>
   <trkpt lat="-33.90265" lon="23.69977">
    <ele>536.8900000000001</ele>
   </trkpt>
   <trkpt lat="-33.9026" lon="23.699710000000003">
    <ele>536.9300000000001</ele>
   </trkpt>
   <trkpt lat="-33.90251" lon="23.699440000000003">
    <ele>536.3100000000001</ele>
   </trkpt>
   <trkpt lat="-33.90249" lon="23.699270000000002">
    <ele>535.64</ele>
   </trkpt>
   <trkpt lat="-33.90245" lon="23.69912">
    <ele>534.0200000000001</ele>
   </trkpt>
   <trkpt lat="-33.90238" lon="23.698790000000002">
    <ele>531.58</ele>
   </trkpt>
   <trkpt lat="-33.90222" lon="23.69863">
    <ele>530.59</ele>
   </trkpt>
   <trkpt lat="-33.90195" lon="23.698230000000002">
    <ele>528.2600000000001</ele>
   </trkpt>
   <trkpt lat="-33.90193" lon="23.698040000000002">
    <ele>527.0100000000001</ele>
   </trkpt>
   <trkpt lat="-33.90202" lon="23.69791">
    <ele>526.47</ele>
   </trkpt>
   <trkpt lat="-33.90204" lon="23.69772">
    <ele>526.58</ele>
   </trkpt>
   <trkpt lat="-33.90195" lon="23.696900000000003">
    <ele>530.83</ele>
   </trkpt>
   <trkpt lat="-33.90193" lon="23.6963">
    <ele>530.47</ele>
   </trkpt>
   <trkpt lat="-33.90191" lon="23.696180000000002">
    <ele>530.2300000000001</ele>
   </trkpt>
   <trkpt lat="-33.90190000158274" lon="23.69555500021534">
    <ele>528.02</ele>
   </trkpt>
   <trkpt lat="-33.90189" lon="23.694930000000003">
    <ele>528.15</ele>
   </trkpt>
   <trkpt lat="-33.90191" lon="23.694480000000002">
    <ele>527.0</ele>
   </trkpt>
   <trkpt lat="-33.90189500203662" lon="23.69376999987755">
    <ele>526.87</ele>
   </trkpt>
   <trkpt lat="-33.901880000000006" lon="23.693060000000003">
    <ele>517.85</ele>
   </trkpt>
   <trkpt lat="-33.90188000320008" lon="23.692170000102877">
    <ele>521.11</ele>
   </trkpt>
   <trkpt lat="-33.901880000000006" lon="23.691280000000003">
    <ele>516.9</ele>
   </trkpt>
   <trkpt lat="-33.90182" lon="23.690690000000004">
    <ele>515.4000000000001</ele>
   </trkpt>
   <trkpt lat="-33.90187" lon="23.689980000000002">
    <ele>515.0400000000001</ele>
   </trkpt>
   <trkpt lat="-33.901880000000006" lon="23.688940000000002">
    <ele>510.86000000000007</ele>
   </trkpt>
   <trkpt lat="-33.9018" lon="23.688840000000003">
    <ele>510.77000000000004</ele>
   </trkpt>
   <trkpt lat="-33.90173" lon="23.68878">
    <ele>510.25000000000006</ele>
   </trkpt>
   <trkpt lat="-33.90164" lon="23.68852">
    <ele>507.71</ele>
   </trkpt>
   <trkpt lat="-33.9018" lon="23.68833">
    <ele>503.72</ele>
   </trkpt>
   <trkpt lat="-33.90182" lon="23.688250000000004">
    <ele>501.46</ele>
   </trkpt>
   <trkpt lat="-33.9018" lon="23.68813">
    <ele>500.48999999999995</ele>
   </trkpt>
   <trkpt lat="-33.901880000000006" lon="23.687800000000003">
    <ele>502.89000000000004</ele>
   </trkpt>
   <trkpt lat="-33.90175" lon="23.68719">
    <ele>506.85</ele>
   </trkpt>
   <trkpt lat="-33.90178" lon="23.686950000000003">
    <ele>506.82000000000005</ele>
   </trkpt>
   <trkpt lat="-33.90177667496355" lon="23.685936666592205">
    <ele>499.32000000000005</ele>
   </trkpt>
   <trkpt lat="-33.901773341630225" lon="23.684923333263548">
    <ele>501.44</ele>
   </trkpt>
   <trkpt lat="-33.901770000000006" lon="23.68391">
    <ele>490.91</ele>
   </trkpt>
   <trkpt lat="-33.90178" lon="23.683090000000004">
    <ele>496.21000000000004</ele>
   </trkpt>
   <trkpt lat="-33.90182" lon="23.682150000000004">
    <ele>493.55</ele>
   </trkpt>
   <trkpt lat="-33.90171" lon="23.681220000000003">
    <ele>489.37</ele>
   </trkpt>
   <trkpt lat="-33.90128" lon="23.68091">
    <ele>492.96000000000004</ele>
   </trkpt>
   <trkpt lat="-33.90131" lon="23.68073">
    <ele>494.57000000000005</ele>
   </trkpt>
   <trkpt lat="-33.90142" lon="23.680570000000003">
    <ele>493.7900000000001</ele>
   </trkpt>
   <trkpt lat="-33.90164" lon="23.680380000000003">
    <ele>491.53000000000003</ele>
   </trkpt>
   <trkpt lat="-33.90166" lon="23.68024">
    <ele>490.82000000000005</ele>
   </trkpt>
   <trkpt lat="-33.901565010822985" lon="23.67929499683742">
    <ele>484.31</ele>
   </trkpt>
   <trkpt lat="-33.90147001443035" lon="23.678349995780593">
    <ele>489.8500000000001</ele>
   </trkpt>
   <trkpt lat="-33.90137501082218" lon="23.677404996829672">
    <ele>492.52</ele>
   </trkpt>
   <trkpt lat="-33.90128" lon="23.676460000000002">
    <ele>493.09000000000003</ele>
   </trkpt>
   <trkpt lat="-33.90122" lon="23.676330000000004">
    <ele>493.78000000000003</ele>
   </trkpt>
   <trkpt lat="-33.90124" lon="23.67611">
    <ele>495.48</ele>
   </trkpt>
   <trkpt lat="-33.90116000311654" lon="23.675229999042458">
    <ele>493.7900000000001</ele>
   </trkpt>
   <trkpt lat="-33.90108" lon="23.67435">
    <ele>490.32000000000005</ele>
   </trkpt>
   <trkpt lat="-33.90095" lon="23.674280000000003">
    <ele>489.89000000000004</ele>
   </trkpt>
   <trkpt lat="-33.90104" lon="23.67397">
    <ele>489.71000000000004</ele>
   </trkpt>
   <trkpt lat="-33.90095" lon="23.673140000000004">
    <ele>492.39000000000004</ele>
   </trkpt>
   <trkpt lat="-33.90086000354939" lon="23.672204999195767">
    <ele>497.04</ele>
   </trkpt>
   <trkpt lat="-33.90077" lon="23.671270000000003">
    <ele>499.34000000000003</ele>
   </trkpt>
   <trkpt lat="-33.90081" lon="23.670730000000002">
    <ele>492.90000000000003</ele>
   </trkpt>
   <trkpt lat="-33.90075" lon="23.66992">
    <ele>477.36000000000007</ele>
   </trkpt>
   <trkpt lat="-33.90084" lon="23.669420000000002">
    <ele>475.18000000000006</ele>
   </trkpt>
   <trkpt lat="-33.90084" lon="23.669020000000003">
    <ele>475.19000000000005</ele>
   </trkpt>
   <trkpt lat="-33.90077" lon="23.66832">
    <ele>470.11</ele>
   </trkpt>
   <trkpt lat="-33.90084" lon="23.667980000000004">
    <ele>469.56</ele>
   </trkpt>
   <trkpt lat="-33.90081" lon="23.667350000000003">
    <ele>465.59000000000003</ele>
   </trkpt>
   <trkpt lat="-33.90084" lon="23.667250000000003">
    <ele>463.5</ele>
   </trkpt>
   <trkpt lat="-33.90095" lon="23.66636">
    <ele>462.06</ele>
   </trkpt>
   <trkpt lat="-33.90097" lon="23.66627">
    <ele>462.44</ele>
   </trkpt>
   <trkpt lat="-33.90097" lon="23.66553">
    <ele>462.11</ele>
   </trkpt>
   <trkpt lat="-33.9009" lon="23.66449">
    <ele>456.23</ele>
   </trkpt>
   <trkpt lat="-33.90084" lon="23.664150000000003">
    <ele>453.68</ele>
   </trkpt>
   <trkpt lat="-33.90081" lon="23.663610000000002">
    <ele>447.90000000000003</ele>
   </trkpt>
   <trkpt lat="-33.90075" lon="23.66346">
    <ele>446.70000000000005</ele>
   </trkpt>
   <trkpt lat="-33.9007" lon="23.66308">
    <ele>439.93</ele>
   </trkpt>
   <trkpt lat="-33.90072" lon="23.6627">
    <ele>437.1700000000001</ele>
   </trkpt>
   <trkpt lat="-33.9006750015185" lon="23.66208499954566">
    <ele>433.92</ele>
   </trkpt>
   <trkpt lat="-33.90063" lon="23.66147">
    <ele>428.62000000000006</ele>
   </trkpt>
   <trkpt lat="-33.90057" lon="23.661140000000003">
    <ele>424.87</ele>
   </trkpt>
   <trkpt lat="-33.90057" lon="23.660570000000003">
    <ele>418.01000000000005</ele>
   </trkpt>
   <trkpt lat="-33.900525001648866" lon="23.659929999578683">
    <ele>411.71000000000004</ele>
   </trkpt>
   <trkpt lat="-33.90048" lon="23.659290000000002">
    <ele>400.31000000000006</ele>
   </trkpt>
   <trkpt lat="-33.90052" lon="23.658700000000003">
    <ele>393.33</ele>
   </trkpt>
   <trkpt lat="-33.90079" lon="23.658220000000004">
    <ele>380.62</ele>
   </trkpt>
   <trkpt lat="-33.90088" lon="23.657980000000002">
    <ele>376.85</ele>
   </trkpt>
   <trkpt lat="-33.90095" lon="23.657880000000002">
    <ele>373.82000000000005</ele>
   </trkpt>
   <trkpt lat="-33.90104" lon="23.657790000000002">
    <ele>372.00000000000006</ele>
   </trkpt>
   <trkpt lat="-33.90115" lon="23.657860000000003">
    <ele>369.9</ele>
   </trkpt>
   <trkpt lat="-33.90126" lon="23.658070000000002">
    <ele>367.14</ele>
   </trkpt>
   <trkpt lat="-33.90133" lon="23.658350000000002">
    <ele>363.46</ele>
   </trkpt>
   <trkpt lat="-33.90133" lon="23.65856">
    <ele>360.83000000000004</ele>
   </trkpt>
   <trkpt lat="-33.90175" lon="23.65865">
    <ele>352.06000000000006</ele>
   </trkpt>
   <trkpt lat="-33.90189" lon="23.658600000000003">
    <ele>346.27000000000004</ele>
   </trkpt>
   <trkpt lat="-33.9022" lon="23.658350000000002">
    <ele>334.81000000000006</ele>
   </trkpt>
   <trkpt lat="-33.90225" lon="23.658230000000003">
    <ele>334.81000000000006</ele>
   </trkpt>
   <trkpt lat="-33.90238" lon="23.658140000000003">
    <ele>329.69000000000005</ele>
   </trkpt>
   <trkpt lat="-33.90263" lon="23.657850000000003">
    <ele>320.90000000000003</ele>
   </trkpt>
   <trkpt lat="-33.90296" lon="23.657590000000003">
    <ele>307.78</ele>
   </trkpt>
   <trkpt lat="-33.90312" lon="23.65754">
    <ele>306.13</ele>
   </trkpt>
   <trkpt lat="-33.90336" lon="23.65736">
    <ele>300.06000000000006</ele>
   </trkpt>
   <trkpt lat="-33.903560000000006" lon="23.657120000000003">
    <ele>293.96</ele>
   </trkpt>
   <trkpt lat="-33.90363" lon="23.65678">
    <ele>288.36</ele>
   </trkpt>
   <trkpt lat="-33.90357" lon="23.656640000000003">
    <ele>284.83000000000004</ele>
   </trkpt>
   <trkpt lat="-33.90352" lon="23.6564">
    <ele>280.59</ele>
   </trkpt>
   <trkpt lat="-33.90352" lon="23.65585">
    <ele>271.79</ele>
   </trkpt>
   <trkpt lat="-33.90348" lon="23.6554">
    <ele>268.48</ele>
   </trkpt>
   <trkpt lat="-33.90345" lon="23.655310000000004">
    <ele>268.40000000000003</ele>
   </trkpt>
   <trkpt lat="-33.90334" lon="23.655310000000004">
    <ele>268.58000000000004</ele>
   </trkpt>
   <trkpt lat="-33.90328" lon="23.65527">
    <ele>268.58000000000004</ele>
   </trkpt>
   <trkpt lat="-33.90325" lon="23.65508">
    <ele>268.75000000000006</ele>
   </trkpt>
   <trkpt lat="-33.90325" lon="23.65471">
    <ele>270.31</ele>
   </trkpt>
   <trkpt lat="-33.9033" lon="23.65444">
    <ele>273.79</ele>
   </trkpt>
   <trkpt lat="-33.90341" lon="23.65425">
    <ele>278.27000000000004</ele>
   </trkpt>
   <trkpt lat="-33.90339" lon="23.654110000000003">
    <ele>280.18</ele>
   </trkpt>
   <trkpt lat="-33.90319" lon="23.654000000000003">
    <ele>285.17</ele>
   </trkpt>
   <trkpt lat="-33.90307" lon="23.653840000000002">
    <ele>288.72</ele>
   </trkpt>
   <trkpt lat="-33.90292" lon="23.653830000000003">
    <ele>291.27000000000004</ele>
   </trkpt>
   <trkpt lat="-33.90274" lon="23.653910000000003">
    <ele>295.07</ele>
   </trkpt>
   <trkpt lat="-33.90254" lon="23.65405">
    <ele>305.04</ele>
   </trkpt>
   <trkpt lat="-33.90247" lon="23.654020000000003">
    <ele>305.04</ele>
   </trkpt>
   <trkpt lat="-33.90263" lon="23.6537">
    <ele>312.57</ele>
   </trkpt>
   <trkpt lat="-33.90263" lon="23.6536">
    <ele>313.64000000000004</ele>
   </trkpt>
   <trkpt lat="-33.90276" lon="23.653380000000002">
    <ele>319.35</ele>
   </trkpt>
   <trkpt lat="-33.90301" lon="23.65321">
    <ele>324.96000000000004</ele>
   </trkpt>
   <trkpt lat="-33.90316" lon="23.653180000000003">
    <ele>327.94</ele>
   </trkpt>
   <trkpt lat="-33.90404" lon="23.65332">
    <ele>341.0</ele>
   </trkpt>
   <trkpt lat="-33.90422" lon="23.653250000000003">
    <ele>343.51000000000005</ele>
   </trkpt>
   <trkpt lat="-33.905" lon="23.653060000000004">
    <ele>355.07000000000005</ele>
   </trkpt>
   <trkpt lat="-33.90504" lon="23.653000000000002">
    <ele>355.07000000000005</ele>
   </trkpt>
   <trkpt lat="-33.90511" lon="23.652780000000003">
    <ele>357.77000000000004</ele>
   </trkpt>
   <trkpt lat="-33.90511" lon="23.65258">
    <ele>358.98</ele>
   </trkpt>
   <trkpt lat="-33.90489" lon="23.651690000000002">
    <ele>360.27000000000004</ele>
   </trkpt>
   <trkpt lat="-33.90457" lon="23.65144">
    <ele>360.21000000000004</ele>
   </trkpt>
   <trkpt lat="-33.90455" lon="23.651380000000003">
    <ele>360.53000000000003</ele>
   </trkpt>
   <trkpt lat="-33.90439" lon="23.651290000000003">
    <ele>363.54</ele>
   </trkpt>
   <trkpt lat="-33.90417" lon="23.651030000000002">
    <ele>365.00000000000006</ele>
   </trkpt>
   <trkpt lat="-33.90406" lon="23.65086">
    <ele>367.69</ele>
   </trkpt>
   <trkpt lat="-33.9039" lon="23.650440000000003">
    <ele>370.14000000000004</ele>
   </trkpt>
   <trkpt lat="-33.90375" lon="23.65041">
    <ele>371.52</ele>
   </trkpt>
   <trkpt lat="-33.90357" lon="23.650250000000003">
    <ele>372.48</ele>
   </trkpt>
   <trkpt lat="-33.90339" lon="23.649990000000003">
    <ele>375.39000000000004</ele>
   </trkpt>
   <trkpt lat="-33.90287" lon="23.64945">
    <ele>382.34000000000003</ele>
   </trkpt>
   <trkpt lat="-33.90256000077728" lon="23.649044998677127">
    <ele>385.35</ele>
   </trkpt>
   <trkpt lat="-33.90225" lon="23.64864">
    <ele>391.16</ele>
   </trkpt>
   <trkpt lat="-33.9016" lon="23.648020000000002">
    <ele>399.43</ele>
   </trkpt>
   <trkpt lat="-33.90151" lon="23.647810000000003">
    <ele>399.64000000000004</ele>
   </trkpt>
   <trkpt lat="-33.90153" lon="23.64711">
    <ele>401.05</ele>
   </trkpt>
   <trkpt lat="-33.90153" lon="23.647050000000004">
    <ele>401.53000000000003</ele>
   </trkpt>
   <trkpt lat="-33.90142" lon="23.646710000000002">
    <ele>405.29</ele>
   </trkpt>
   <trkpt lat="-33.90139" lon="23.646440000000002">
    <ele>407.41</ele>
   </trkpt>
   <trkpt lat="-33.90128" lon="23.645960000000002">
    <ele>410.84000000000003</ele>
   </trkpt>
   <trkpt lat="-33.90119" lon="23.6459">
    <ele>413.61</ele>
   </trkpt>
   <trkpt lat="-33.9011" lon="23.64563">
    <ele>415.49</ele>
   </trkpt>
   <trkpt lat="-33.9009" lon="23.64524">
    <ele>421.96000000000004</ele>
   </trkpt>
   <trkpt lat="-33.90079" lon="23.64469">
    <ele>427.50000000000006</ele>
   </trkpt>
   <trkpt lat="-33.90048" lon="23.643880000000003">
    <ele>437.47</ele>
   </trkpt>
   <trkpt lat="-33.90063500121687" lon="23.643335000931284">
    <ele>434.9</ele>
   </trkpt>
   <trkpt lat="-33.90079" lon="23.64279">
    <ele>432.91</ele>
   </trkpt>
   <trkpt lat="-33.90086" lon="23.64233">
    <ele>433.09000000000003</ele>
   </trkpt>
   <trkpt lat="-33.90088" lon="23.64204">
    <ele>433.00000000000006</ele>
   </trkpt>
   <trkpt lat="-33.90101" lon="23.6417">
    <ele>430.42</ele>
   </trkpt>
   <trkpt lat="-33.90119" lon="23.641560000000002">
    <ele>427.55</ele>
   </trkpt>
   <trkpt lat="-33.90122" lon="23.64158">
    <ele>427.55</ele>
   </trkpt>
   <trkpt lat="-33.90131" lon="23.64157">
    <ele>424.90000000000003</ele>
   </trkpt>
   <trkpt lat="-33.9016" lon="23.641250000000003">
    <ele>419.36</ele>
   </trkpt>
   <trkpt lat="-33.90171" lon="23.64103">
    <ele>417.77000000000004</ele>
   </trkpt>
   <trkpt lat="-33.9018" lon="23.640700000000002">
    <ele>416.31</ele>
   </trkpt>
   <trkpt lat="-33.90195" lon="23.64044">
    <ele>413.93</ele>
   </trkpt>
   <trkpt lat="-33.902350000000006" lon="23.64">
    <ele>409.67</ele>
   </trkpt>
   <trkpt lat="-33.90249" lon="23.63971">
    <ele>407.91</ele>
   </trkpt>
   <trkpt lat="-33.90256" lon="23.639380000000003">
    <ele>407.14000000000004</ele>
   </trkpt>
   <trkpt lat="-33.90258" lon="23.639110000000002">
    <ele>407.77000000000004</ele>
   </trkpt>
   <trkpt lat="-33.90254" lon="23.638890000000004">
    <ele>408.49</ele>
   </trkpt>
   <trkpt lat="-33.90254" lon="23.638560000000002">
    <ele>408.74000000000007</ele>
   </trkpt>
   <trkpt lat="-33.90265" lon="23.637900000000002">
    <ele>406.98</ele>
   </trkpt>
   <trkpt lat="-33.90272" lon="23.637690000000003">
    <ele>406.21</ele>
   </trkpt>
   <trkpt lat="-33.90294" lon="23.63754">
    <ele>404.49</ele>
   </trkpt>
   <trkpt lat="-33.90325" lon="23.63706">
    <ele>399.59000000000003</ele>
   </trkpt>
   <trkpt lat="-33.90343" lon="23.636930000000003">
    <ele>398.68</ele>
   </trkpt>
   <trkpt lat="-33.90354" lon="23.63682">
    <ele>398.26000000000005</ele>
   </trkpt>
   <trkpt lat="-33.90375" lon="23.636740000000003">
    <ele>397.05</ele>
   </trkpt>
   <trkpt lat="-33.90417" lon="23.63669">
    <ele>392.51</ele>
   </trkpt>
   <trkpt lat="-33.90426" lon="23.63669">
    <ele>392.51</ele>
   </trkpt>
   <trkpt lat="-33.90444" lon="23.636760000000002">
    <ele>390.07</ele>
   </trkpt>
   <trkpt lat="-33.90469" lon="23.63682">
    <ele>386.32000000000005</ele>
   </trkpt>
   <trkpt lat="-33.90489" lon="23.63681">
    <ele>383.29</ele>
   </trkpt>
   <trkpt lat="-33.90502" lon="23.63671">
    <ele>378.71000000000004</ele>
   </trkpt>
   <trkpt lat="-33.90513" lon="23.6367">
    <ele>378.71000000000004</ele>
   </trkpt>
   <trkpt lat="-33.90529" lon="23.636750000000003">
    <ele>374.28000000000003</ele>
   </trkpt>
   <trkpt lat="-33.9054" lon="23.636760000000002">
    <ele>372.35</ele>
   </trkpt>
   <trkpt lat="-33.90554" lon="23.63681">
    <ele>368.97</ele>
   </trkpt>
   <trkpt lat="-33.90563" lon="23.636740000000003">
    <ele>365.29</ele>
   </trkpt>
   <trkpt lat="-33.90563" lon="23.6366">
    <ele>362.15000000000003</ele>
   </trkpt>
   <trkpt lat="-33.90558" lon="23.63644">
    <ele>358.38000000000005</ele>
   </trkpt>
   <trkpt lat="-33.90567" lon="23.63642">
    <ele>357.37</ele>
   </trkpt>
   <trkpt lat="-33.90583" lon="23.63651">
    <ele>354.98</ele>
   </trkpt>
   <trkpt lat="-33.90589" lon="23.63613">
    <ele>344.41</ele>
   </trkpt>
   <trkpt lat="-33.90598" lon="23.636100000000003">
    <ele>339.97</ele>
   </trkpt>
   <trkpt lat="-33.90612" lon="23.635980000000004">
    <ele>336.84000000000003</ele>
   </trkpt>
   <trkpt lat="-33.90632" lon="23.63595">
    <ele>326.41</ele>
   </trkpt>
   <trkpt lat="-33.90639" lon="23.63595">
    <ele>325.17</ele>
   </trkpt>
   <trkpt lat="-33.90648" lon="23.636010000000002">
    <ele>322.97</ele>
   </trkpt>
   <trkpt lat="-33.90648" lon="23.636210000000002">
    <ele>320.32000000000005</ele>
   </trkpt>
   <trkpt lat="-33.90645" lon="23.63643">
    <ele>321.15000000000003</ele>
   </trkpt>
   <trkpt lat="-33.9065" lon="23.636560000000003">
    <ele>321.68</ele>
   </trkpt>
   <trkpt lat="-33.90666" lon="23.63661">
    <ele>320.47</ele>
   </trkpt>
   <trkpt lat="-33.90697" lon="23.636490000000002">
    <ele>314.59000000000003</ele>
   </trkpt>
   <trkpt lat="-33.90704" lon="23.63624">
    <ele>312.41</ele>
   </trkpt>
   <trkpt lat="-33.90724" lon="23.636200000000002">
    <ele>312.4</ele>
   </trkpt>
   <trkpt lat="-33.90724" lon="23.63641">
    <ele>313.92</ele>
   </trkpt>
   <trkpt lat="-33.90748" lon="23.636550000000003">
    <ele>317.56</ele>
   </trkpt>
   <trkpt lat="-33.90782" lon="23.63642">
    <ele>324.70000000000005</ele>
   </trkpt>
   <trkpt lat="-33.90807" lon="23.63635">
    <ele>332.52000000000004</ele>
   </trkpt>
   <trkpt lat="-33.90824" lon="23.636360000000003">
    <ele>335.77</ele>
   </trkpt>
   <trkpt lat="-33.90847" lon="23.63644">
    <ele>341.44</ele>
   </trkpt>
   <trkpt lat="-33.90867" lon="23.63661">
    <ele>344.93</ele>
   </trkpt>
   <trkpt lat="-33.90869" lon="23.63671">
    <ele>345.66</ele>
   </trkpt>
   <trkpt lat="-33.90892" lon="23.636870000000002">
    <ele>349.26</ele>
   </trkpt>
   <trkpt lat="-33.9091" lon="23.63669">
    <ele>356.15000000000003</ele>
   </trkpt>
   <trkpt lat="-33.90927" lon="23.63613">
    <ele>363.99</ele>
   </trkpt>
   <trkpt lat="-33.90941" lon="23.63584">
    <ele>370.1</ele>
   </trkpt>
   <trkpt lat="-33.90968" lon="23.635910000000003">
    <ele>373.8</ele>
   </trkpt>
   <trkpt lat="-33.91028" lon="23.63577">
    <ele>376.51</ele>
   </trkpt>
   <trkpt lat="-33.91084" lon="23.635510000000004">
    <ele>376.26000000000005</ele>
   </trkpt>
   <trkpt lat="-33.91095" lon="23.635360000000002">
    <ele>375.95</ele>
   </trkpt>
   <trkpt lat="-33.91107" lon="23.63528">
    <ele>375.94000000000005</ele>
   </trkpt>
   <trkpt lat="-33.9114" lon="23.63501">
    <ele>375.25</ele>
   </trkpt>
   <trkpt lat="-33.91151" lon="23.63473">
    <ele>373.70000000000005</ele>
   </trkpt>
   <trkpt lat="-33.91171" lon="23.63437">
    <ele>369.28000000000003</ele>
   </trkpt>
   <trkpt lat="-33.91205" lon="23.63397">
    <ele>371.96</ele>
   </trkpt>
   <trkpt lat="-33.91216" lon="23.633930000000003">
    <ele>375.59000000000003</ele>
   </trkpt>
   <trkpt lat="-33.91245" lon="23.634040000000002">
    <ele>379.01</ele>
   </trkpt>
   <trkpt lat="-33.91257" lon="23.634040000000002">
    <ele>381.12</ele>
   </trkpt>
   <trkpt lat="-33.91297" lon="23.63427">
    <ele>391.46000000000004</ele>
   </trkpt>
   <trkpt lat="-33.913474999974106" lon="23.634304999790466">
    <ele>403.11</ele>
   </trkpt>
   <trkpt lat="-33.91398" lon="23.63434">
    <ele>411.18000000000006</ele>
   </trkpt>
   <trkpt lat="-33.91413" lon="23.63427">
    <ele>411.55</ele>
   </trkpt>
   <trkpt lat="-33.91427" lon="23.634140000000002">
    <ele>409.71000000000004</ele>
   </trkpt>
   <trkpt lat="-33.91433" lon="23.634110000000003">
    <ele>408.84000000000003</ele>
   </trkpt>
   <trkpt lat="-33.91449" lon="23.63409">
    <ele>404.45000000000005</ele>
   </trkpt>
   <trkpt lat="-33.9146" lon="23.634140000000002">
    <ele>399.34000000000003</ele>
   </trkpt>
   <trkpt lat="-33.91483" lon="23.63418">
    <ele>395.84000000000003</ele>
   </trkpt>
   <trkpt lat="-33.91501" lon="23.63427">
    <ele>389.59000000000003</ele>
   </trkpt>
   <trkpt lat="-33.91503" lon="23.63434">
    <ele>389.59000000000003</ele>
   </trkpt>
   <trkpt lat="-33.91521" lon="23.634490000000003">
    <ele>385.72</ele>
   </trkpt>
   <trkpt lat="-33.91565" lon="23.63483">
    <ele>375.35</ele>
   </trkpt>
   <trkpt lat="-33.91572" lon="23.634970000000003">
    <ele>374.44000000000005</ele>
   </trkpt>
   <trkpt lat="-33.91575" lon="23.63503">
    <ele>373.93</ele>
   </trkpt>
   <trkpt lat="-33.91592" lon="23.635360000000002">
    <ele>370.16</ele>
   </trkpt>
   <trkpt lat="-33.91597" lon="23.63569">
    <ele>366.59000000000003</ele>
   </trkpt>
   <trkpt lat="-33.91603" lon="23.63585">
    <ele>365.66</ele>
   </trkpt>
   <trkpt lat="-33.91601" lon="23.636100000000003">
    <ele>363.45000000000005</ele>
   </trkpt>
   <trkpt lat="-33.91637" lon="23.636450000000004">
    <ele>354.3</ele>
   </trkpt>
   <trkpt lat="-33.91646" lon="23.63663">
    <ele>351.45000000000005</ele>
   </trkpt>
   <trkpt lat="-33.91642" lon="23.637040000000002">
    <ele>343.89000000000004</ele>
   </trkpt>
   <trkpt lat="-33.91673" lon="23.63766">
    <ele>335.96000000000004</ele>
   </trkpt>
   <trkpt lat="-33.9168" lon="23.63804">
    <ele>327.54</ele>
   </trkpt>
   <trkpt lat="-33.917" lon="23.638450000000002">
    <ele>314.37</ele>
   </trkpt>
   <trkpt lat="-33.91706" lon="23.638700000000004">
    <ele>309.52000000000004</ele>
   </trkpt>
   <trkpt lat="-33.91727" lon="23.63894">
    <ele>304.19</ele>
   </trkpt>
   <trkpt lat="-33.91742" lon="23.639200000000002">
    <ele>299.77000000000004</ele>
   </trkpt>
   <trkpt lat="-33.91747" lon="23.639190000000003">
    <ele>295.81</ele>
   </trkpt>
   <trkpt lat="-33.91756" lon="23.63877">
    <ele>290.43</ele>
   </trkpt>
   <trkpt lat="-33.91787" lon="23.6382">
    <ele>303.34</ele>
   </trkpt>
   <trkpt lat="-33.91805" lon="23.638090000000002">
    <ele>312.14000000000004</ele>
   </trkpt>
   <trkpt lat="-33.91832" lon="23.638080000000002">
    <ele>321.42</ele>
   </trkpt>
   <trkpt lat="-33.91847" lon="23.638180000000002">
    <ele>326.67</ele>
   </trkpt>
   <trkpt lat="-33.91854" lon="23.638180000000002">
    <ele>328.54</ele>
   </trkpt>
   <trkpt lat="-33.91861" lon="23.6381">
    <ele>330.0</ele>
   </trkpt>
   <trkpt lat="-33.91856" lon="23.637970000000003">
    <ele>330.44</ele>
   </trkpt>
   <trkpt lat="-33.91856" lon="23.637760000000004">
    <ele>331.68</ele>
   </trkpt>
   <trkpt lat="-33.91863" lon="23.63745">
    <ele>334.41</ele>
   </trkpt>
   <trkpt lat="-33.91874" lon="23.63719">
    <ele>335.99</ele>
   </trkpt>
   <trkpt lat="-33.91874" lon="23.637130000000003">
    <ele>336.70000000000005</ele>
   </trkpt>
   <trkpt lat="-33.91866500162267" lon="23.636489999159338">
    <ele>339.4200000000001</ele>
   </trkpt>
   <trkpt lat="-33.91859" lon="23.63585">
    <ele>343.47</ele>
   </trkpt>
   <trkpt lat="-33.91859" lon="23.63539">
    <ele>345.41</ele>
   </trkpt>
   <trkpt lat="-33.91872" lon="23.635">
    <ele>346.84000000000003</ele>
   </trkpt>
   <trkpt lat="-33.91906" lon="23.634320000000002">
    <ele>352.15000000000003</ele>
   </trkpt>
   <trkpt lat="-33.91921" lon="23.633930000000003">
    <ele>357.00000000000006</ele>
   </trkpt>
   <trkpt lat="-33.91924" lon="23.63372">
    <ele>358.31</ele>
   </trkpt>
   <trkpt lat="-33.91924" lon="23.63334">
    <ele>362.19</ele>
   </trkpt>
   <trkpt lat="-33.91928" lon="23.63296">
    <ele>364.72</ele>
   </trkpt>
   <trkpt lat="-33.91933" lon="23.632820000000002">
    <ele>365.84000000000003</ele>
   </trkpt>
   <trkpt lat="-33.91946" lon="23.63267">
    <ele>369.01</ele>
   </trkpt>
   <trkpt lat="-33.91964" lon="23.632640000000002">
    <ele>370.25</ele>
   </trkpt>
   <trkpt lat="-33.920130000804924" lon="23.633109997212813">
    <ele>366.99</ele>
   </trkpt>
   <trkpt lat="-33.92062" lon="23.633580000000002">
    <ele>364.56000000000006</ele>
   </trkpt>
   <trkpt lat="-33.92129500181207" lon="23.634274994349603">
    <ele>359.07000000000005</ele>
   </trkpt>
   <trkpt lat="-33.92197" lon="23.634970000000003">
    <ele>352.52000000000004</ele>
   </trkpt>
   <trkpt lat="-33.92244" lon="23.635650000000002">
    <ele>346.43</ele>
   </trkpt>
   <trkpt lat="-33.923" lon="23.636380000000003">
    <ele>341.99</ele>
   </trkpt>
   <trkpt lat="-33.92338" lon="23.63672">
    <ele>343.08000000000004</ele>
   </trkpt>
   <trkpt lat="-33.92398" lon="23.637010000000004">
    <ele>346.44</ele>
   </trkpt>
   <trkpt lat="-33.924290000000006" lon="23.6371">
    <ele>346.49</ele>
   </trkpt>
   <trkpt lat="-33.924330000000005" lon="23.637110000000003">
    <ele>346.37</ele>
   </trkpt>
   <trkpt lat="-33.92496000031064" lon="23.637294998682407">
    <ele>344.77000000000004</ele>
   </trkpt>
   <trkpt lat="-33.92559" lon="23.637480000000004">
    <ele>343.22</ele>
   </trkpt>
   <trkpt lat="-33.92564" lon="23.637210000000003">
    <ele>345.27000000000004</ele>
   </trkpt>
   <trkpt lat="-33.92566" lon="23.6365">
    <ele>348.15000000000003</ele>
   </trkpt>
   <trkpt lat="-33.92559" lon="23.63632">
    <ele>349.61</ele>
   </trkpt>
   <trkpt lat="-33.92560500168232" lon="23.63567500006998">
    <ele>353.03000000000003</ele>
   </trkpt>
   <trkpt lat="-33.92562" lon="23.63503">
    <ele>353.61</ele>
   </trkpt>
   <trkpt lat="-33.925705002846314" lon="23.634190000890264">
    <ele>360.08</ele>
   </trkpt>
   <trkpt lat="-33.92579" lon="23.633350000000004">
    <ele>365.76000000000005</ele>
   </trkpt>
   <trkpt lat="-33.926" lon="23.6323">
    <ele>369.53000000000003</ele>
   </trkpt>
   <trkpt lat="-33.92602" lon="23.63147">
    <ele>373.16</ele>
   </trkpt>
   <trkpt lat="-33.92615" lon="23.631410000000002">
    <ele>372.93</ele>
   </trkpt>
   <trkpt lat="-33.9264" lon="23.631600000000002">
    <ele>372.00000000000006</ele>
   </trkpt>
   <trkpt lat="-33.92667" lon="23.63163">
    <ele>371.9</ele>
   </trkpt>
   <trkpt lat="-33.92682" lon="23.63162">
    <ele>372.36</ele>
   </trkpt>
   <trkpt lat="-33.927" lon="23.631520000000002">
    <ele>372.50000000000006</ele>
   </trkpt>
   <trkpt lat="-33.92723" lon="23.631190000000004">
    <ele>372.53000000000003</ele>
   </trkpt>
   <trkpt lat="-33.92747" lon="23.630670000000002">
    <ele>372.66</ele>
   </trkpt>
   <trkpt lat="-33.92759" lon="23.630010000000002">
    <ele>369.70000000000005</ele>
   </trkpt>
   <trkpt lat="-33.92761" lon="23.62966">
    <ele>366.55</ele>
   </trkpt>
   <trkpt lat="-33.92756" lon="23.62912">
    <ele>361.69</ele>
   </trkpt>
   <trkpt lat="-33.92763" lon="23.629">
    <ele>361.65000000000003</ele>
   </trkpt>
   <trkpt lat="-33.92768" lon="23.62901">
    <ele>361.77000000000004</ele>
   </trkpt>
   <trkpt lat="-33.92779" lon="23.628960000000003">
    <ele>363.73</ele>
   </trkpt>
   <trkpt lat="-33.92794" lon="23.628950000000003">
    <ele>367.57</ele>
   </trkpt>
   <trkpt lat="-33.92808" lon="23.628870000000003">
    <ele>369.82000000000005</ele>
   </trkpt>
   <trkpt lat="-33.92826" lon="23.62882">
    <ele>372.95</ele>
   </trkpt>
   <trkpt lat="-33.92844" lon="23.62893">
    <ele>372.87</ele>
   </trkpt>
   <trkpt lat="-33.92862" lon="23.6293">
    <ele>368.32000000000005</ele>
   </trkpt>
   <trkpt lat="-33.92873" lon="23.629320000000003">
    <ele>367.52</ele>
   </trkpt>
   <trkpt lat="-33.92877" lon="23.629450000000002">
    <ele>366.55</ele>
   </trkpt>
   <trkpt lat="-33.92915" lon="23.62949">
    <ele>366.53000000000003</ele>
   </trkpt>
   <trkpt lat="-33.92935" lon="23.629350000000002">
    <ele>364.98</ele>
   </trkpt>
   <trkpt lat="-33.92953" lon="23.629320000000003">
    <ele>361.93</ele>
   </trkpt>
   <trkpt lat="-33.92971" lon="23.629550000000002">
    <ele>359.6</ele>
   </trkpt>
   <trkpt lat="-33.92987" lon="23.62958">
    <ele>358.85</ele>
   </trkpt>
   <trkpt lat="-33.92996" lon="23.62968">
    <ele>358.27000000000004</ele>
   </trkpt>
   <trkpt lat="-33.92996" lon="23.62993">
    <ele>355.3</ele>
   </trkpt>
   <trkpt lat="-33.93005" lon="23.630010000000002">
    <ele>354.13000000000005</ele>
   </trkpt>
   <trkpt lat="-33.93034" lon="23.630460000000003">
    <ele>350.82</ele>
   </trkpt>
   <trkpt lat="-33.93065" lon="23.63087">
    <ele>348.76</ele>
   </trkpt>
   <trkpt lat="-33.93101" lon="23.63145">
    <ele>345.40000000000003</ele>
   </trkpt>
   <trkpt lat="-33.93121" lon="23.631680000000003">
    <ele>344.51000000000005</ele>
   </trkpt>
   <trkpt lat="-33.93141" lon="23.63182">
    <ele>343.08000000000004</ele>
   </trkpt>
   <trkpt lat="-33.93153" lon="23.63194">
    <ele>342.27000000000004</ele>
   </trkpt>
   <trkpt lat="-33.93153" lon="23.631960000000003">
    <ele>342.27000000000004</ele>
   </trkpt>
   <trkpt lat="-33.93144" lon="23.631850000000004">
    <ele>342.97</ele>
   </trkpt>
   <trkpt lat="-33.93153" lon="23.63194">
    <ele>342.11</ele>
   </trkpt>
   <trkpt lat="-33.93153" lon="23.632060000000003">
    <ele>340.94</ele>
   </trkpt>
   <trkpt lat="-33.93166" lon="23.63238">
    <ele>339.14000000000004</ele>
   </trkpt>
   <trkpt lat="-33.93179" lon="23.63258">
    <ele>338.85</ele>
   </trkpt>
   <trkpt lat="-33.93206" lon="23.63265">
    <ele>339.15</ele>
   </trkpt>
   <trkpt lat="-33.93224" lon="23.632550000000002">
    <ele>339.88</ele>
   </trkpt>
   <trkpt lat="-33.93233" lon="23.632440000000003">
    <ele>339.43</ele>
   </trkpt>
   <trkpt lat="-33.93256" lon="23.632360000000002">
    <ele>336.04</ele>
   </trkpt>
   <trkpt lat="-33.93264" lon="23.63228">
    <ele>334.58000000000004</ele>
   </trkpt>
   <trkpt lat="-33.93276" lon="23.6321">
    <ele>330.67</ele>
   </trkpt>
   <trkpt lat="-33.93289" lon="23.63212">
    <ele>325.08000000000004</ele>
   </trkpt>
   <trkpt lat="-33.93298" lon="23.632070000000002">
    <ele>323.82000000000005</ele>
   </trkpt>
   <trkpt lat="-33.93305" lon="23.631970000000003">
    <ele>321.8</ele>
   </trkpt>
   <trkpt lat="-33.93312" lon="23.630930000000003">
    <ele>309.08000000000004</ele>
   </trkpt>
   <trkpt lat="-33.93307" lon="23.63041">
    <ele>305.35</ele>
   </trkpt>
   <trkpt lat="-33.933" lon="23.63006">
    <ele>309.00000000000006</ele>
   </trkpt>
   <trkpt lat="-33.93291" lon="23.629920000000002">
    <ele>312.03000000000003</ele>
   </trkpt>
   <trkpt lat="-33.93276" lon="23.62949">
    <ele>317.78</ele>
   </trkpt>
   <trkpt lat="-33.93264" lon="23.629160000000002">
    <ele>323.12</ele>
   </trkpt>
   <trkpt lat="-33.93264" lon="23.629080000000002">
    <ele>323.12</ele>
   </trkpt>
   <trkpt lat="-33.93263" lon="23.62899">
    <ele>324.22</ele>
   </trkpt>
   <trkpt lat="-33.93262" lon="23.62892">
    <ele>324.22</ele>
   </trkpt>
   <trkpt lat="-33.93271" lon="23.628030000000003">
    <ele>335.07000000000005</ele>
   </trkpt>
   <trkpt lat="-33.93271" lon="23.627460000000003">
    <ele>336.12</ele>
   </trkpt>
   <trkpt lat="-33.93267" lon="23.62685">
    <ele>334.01000000000005</ele>
   </trkpt>
   <trkpt lat="-33.93267" lon="23.625790000000002">
    <ele>335.96000000000004</ele>
   </trkpt>
   <trkpt lat="-33.93264" lon="23.625280000000004">
    <ele>340.0</ele>
   </trkpt>
   <trkpt lat="-33.93247" lon="23.624370000000003">
    <ele>349.49</ele>
   </trkpt>
   <trkpt lat="-33.93247" lon="23.624090000000002">
    <ele>350.91</ele>
   </trkpt>
   <trkpt lat="-33.93242" lon="23.62386">
    <ele>352.14</ele>
   </trkpt>
   <trkpt lat="-33.93222" lon="23.623410000000003">
    <ele>357.07000000000005</ele>
   </trkpt>
   <trkpt lat="-33.93191" lon="23.62283">
    <ele>364.49</ele>
   </trkpt>
   <trkpt lat="-33.93141" lon="23.622280000000003">
    <ele>371.42</ele>
   </trkpt>
   <trkpt lat="-33.93121" lon="23.62199">
    <ele>373.62</ele>
   </trkpt>
   <trkpt lat="-33.93121" lon="23.62188">
    <ele>373.62</ele>
   </trkpt>
   <trkpt lat="-33.93128" lon="23.62168">
    <ele>374.92</ele>
   </trkpt>
   <trkpt lat="-33.93141" lon="23.621550000000003">
    <ele>375.00000000000006</ele>
   </trkpt>
   <trkpt lat="-33.93144" lon="23.6212">
    <ele>372.99</ele>
   </trkpt>
   <trkpt lat="-33.93141" lon="23.620610000000003">
    <ele>368.62</ele>
   </trkpt>
   <trkpt lat="-33.93137" lon="23.620420000000003">
    <ele>365.1</ele>
   </trkpt>
   <trkpt lat="-33.93135" lon="23.6202">
    <ele>364.13</ele>
   </trkpt>
   <trkpt lat="-33.93132" lon="23.62018">
    <ele>363.7</ele>
   </trkpt>
   <trkpt lat="-33.93128" lon="23.619970000000002">
    <ele>362.33000000000004</ele>
   </trkpt>
   <trkpt lat="-33.93126" lon="23.619930000000004">
    <ele>362.06000000000006</ele>
   </trkpt>
   <trkpt lat="-33.9311" lon="23.619010000000003">
    <ele>358.58</ele>
   </trkpt>
   <trkpt lat="-33.93106" lon="23.618340000000003">
    <ele>351.53000000000003</ele>
   </trkpt>
   <trkpt lat="-33.93112" lon="23.617520000000003">
    <ele>344.24000000000007</ele>
   </trkpt>
   <trkpt lat="-33.93115" lon="23.616660000000003">
    <ele>335.27</ele>
   </trkpt>
   <trkpt lat="-33.93094" lon="23.61606">
    <ele>331.88</ele>
   </trkpt>
   <trkpt lat="-33.9307" lon="23.615720000000003">
    <ele>332.65</ele>
   </trkpt>
   <trkpt lat="-33.93036" lon="23.61541">
    <ele>332.86</ele>
   </trkpt>
   <trkpt lat="-33.93023" lon="23.61532">
    <ele>332.86</ele>
   </trkpt>
   <trkpt lat="-33.93007" lon="23.615280000000002">
    <ele>332.74</ele>
   </trkpt>
   <trkpt lat="-33.92967" lon="23.61529">
    <ele>332.33</ele>
   </trkpt>
   <trkpt lat="-33.92931" lon="23.61567">
    <ele>335.91</ele>
   </trkpt>
   <trkpt lat="-33.92915" lon="23.616190000000003">
    <ele>338.55</ele>
   </trkpt>
   <trkpt lat="-33.929" lon="23.61625">
    <ele>339.38</ele>
   </trkpt>
   <trkpt lat="-33.92853" lon="23.6155">
    <ele>342.6</ele>
   </trkpt>
   <trkpt lat="-33.92815" lon="23.615160000000003">
    <ele>344.41</ele>
   </trkpt>
   <trkpt lat="-33.92806" lon="23.61503">
    <ele>345.36000000000007</ele>
   </trkpt>
   <trkpt lat="-33.92801" lon="23.614910000000002">
    <ele>347.26</ele>
   </trkpt>
   <trkpt lat="-33.92801" lon="23.614710000000002">
    <ele>352.39000000000004</ele>
   </trkpt>
   <trkpt lat="-33.92806" lon="23.61455">
    <ele>354.59000000000003</ele>
   </trkpt>
   <trkpt lat="-33.92815" lon="23.61438">
    <ele>355.86</ele>
   </trkpt>
   <trkpt lat="-33.92824" lon="23.614310000000003">
    <ele>355.67</ele>
   </trkpt>
   <trkpt lat="-33.92832" lon="23.61418">
    <ele>354.40000000000003</ele>
   </trkpt>
   <trkpt lat="-33.92844" lon="23.6141">
    <ele>352.72</ele>
   </trkpt>
   <trkpt lat="-33.92848" lon="23.613940000000003">
    <ele>349.63000000000005</ele>
   </trkpt>
   <trkpt lat="-33.92855" lon="23.613830000000004">
    <ele>349.63000000000005</ele>
   </trkpt>
   <trkpt lat="-33.92866" lon="23.613500000000002">
    <ele>343.45000000000005</ele>
   </trkpt>
   <trkpt lat="-33.92893" lon="23.613080000000004">
    <ele>334.05</ele>
   </trkpt>
   <trkpt lat="-33.92897" lon="23.61297">
    <ele>332.05</ele>
   </trkpt>
   <trkpt lat="-33.92897" lon="23.61289">
    <ele>331.11</ele>
   </trkpt>
   <trkpt lat="-33.929" lon="23.61276">
    <ele>328.57000000000005</ele>
   </trkpt>
   <trkpt lat="-33.929" lon="23.61259">
    <ele>324.11</ele>
   </trkpt>
   <trkpt lat="-33.92904" lon="23.612250000000003">
    <ele>319.78000000000003</ele>
   </trkpt>
   <trkpt lat="-33.92907" lon="23.61221">
    <ele>319.78000000000003</ele>
   </trkpt>
   <trkpt lat="-33.929080000000006" lon="23.6122">
    <ele>319.65999999999997</ele>
   </trkpt>
   <trkpt lat="-33.92911" lon="23.612160000000003">
    <ele>319.02000000000004</ele>
   </trkpt>
   <trkpt lat="-33.92911" lon="23.612090000000002">
    <ele>319.02000000000004</ele>
   </trkpt>
   <trkpt lat="-33.92915" lon="23.611980000000003">
    <ele>315.95</ele>
   </trkpt>
   <trkpt lat="-33.92926" lon="23.61182">
    <ele>314.74</ele>
   </trkpt>
   <trkpt lat="-33.92931" lon="23.611690000000003">
    <ele>315.03000000000003</ele>
   </trkpt>
   <trkpt lat="-33.92922" lon="23.611330000000002">
    <ele>317.38000000000005</ele>
   </trkpt>
   <trkpt lat="-33.92888" lon="23.61091">
    <ele>316.06</ele>
   </trkpt>
   <trkpt lat="-33.92929" lon="23.61091">
    <ele>313.07</ele>
   </trkpt>
   <trkpt lat="-33.92938" lon="23.610940000000003">
    <ele>313.23</ele>
   </trkpt>
   <trkpt lat="-33.92951" lon="23.61109">
    <ele>313.85</ele>
   </trkpt>
   <trkpt lat="-33.92956" lon="23.61109">
    <ele>314.39</ele>
   </trkpt>
   <trkpt lat="-33.92962" lon="23.61118">
    <ele>314.6</ele>
   </trkpt>
   <trkpt lat="-33.92969" lon="23.61138">
    <ele>316.24</ele>
   </trkpt>
   <trkpt lat="-33.92976" lon="23.61144">
    <ele>318.54</ele>
   </trkpt>
   <trkpt lat="-33.92976" lon="23.611510000000003">
    <ele>319.28000000000003</ele>
   </trkpt>
   <trkpt lat="-33.9298" lon="23.61148">
    <ele>319.96000000000004</ele>
   </trkpt>
   <trkpt lat="-33.92987" lon="23.611240000000002">
    <ele>322.48</ele>
   </trkpt>
   <trkpt lat="-33.9298" lon="23.610930000000003">
    <ele>327.12</ele>
   </trkpt>
   <trkpt lat="-33.92978" lon="23.61035">
    <ele>331.01000000000005</ele>
   </trkpt>
   <trkpt lat="-33.92982" lon="23.610120000000002">
    <ele>331.59000000000003</ele>
   </trkpt>
   <trkpt lat="-33.92998" lon="23.60959">
    <ele>330.27</ele>
   </trkpt>
   <trkpt lat="-33.93" lon="23.609270000000002">
    <ele>326.53000000000003</ele>
   </trkpt>
   <trkpt lat="-33.92985" lon="23.608330000000002">
    <ele>327.27</ele>
   </trkpt>
   <trkpt lat="-33.92991" lon="23.60797">
    <ele>323.64000000000004</ele>
   </trkpt>
   <trkpt lat="-33.92998" lon="23.607850000000003">
    <ele>322.05</ele>
   </trkpt>
   <trkpt lat="-33.93007" lon="23.607570000000003">
    <ele>314.0</ele>
   </trkpt>
   <trkpt lat="-33.93016" lon="23.6075">
    <ele>314.0</ele>
   </trkpt>
   <trkpt lat="-33.93018" lon="23.60742">
    <ele>311.77000000000004</ele>
   </trkpt>
   <trkpt lat="-33.93025" lon="23.607280000000003">
    <ele>308.87</ele>
   </trkpt>
   <trkpt lat="-33.93052" lon="23.60696">
    <ele>303.1</ele>
   </trkpt>
   <trkpt lat="-33.93063" lon="23.60678">
    <ele>302.33000000000004</ele>
   </trkpt>
   <trkpt lat="-33.93108" lon="23.60678">
    <ele>299.9</ele>
   </trkpt>
   <trkpt lat="-33.93128" lon="23.60685">
    <ele>297.24</ele>
   </trkpt>
   <trkpt lat="-33.93164" lon="23.60703">
    <ele>293.03000000000003</ele>
   </trkpt>
   <trkpt lat="-33.93186" lon="23.60706">
    <ele>291.73</ele>
   </trkpt>
   <trkpt lat="-33.93195" lon="23.606990000000003">
    <ele>290.66</ele>
   </trkpt>
   <trkpt lat="-33.93217" lon="23.606930000000002">
    <ele>289.73</ele>
   </trkpt>
   <trkpt lat="-33.93224" lon="23.60675">
    <ele>290.05</ele>
   </trkpt>
   <trkpt lat="-33.93224" lon="23.60658">
    <ele>290.78000000000003</ele>
   </trkpt>
   <trkpt lat="-33.93204" lon="23.6062">
    <ele>294.51000000000005</ele>
   </trkpt>
   <trkpt lat="-33.932" lon="23.605900000000002">
    <ele>296.68</ele>
   </trkpt>
   <trkpt lat="-33.93209" lon="23.60566">
    <ele>298.08</ele>
   </trkpt>
   <trkpt lat="-33.93215" lon="23.605590000000003">
    <ele>298.32000000000005</ele>
   </trkpt>
   <trkpt lat="-33.93222" lon="23.605420000000002">
    <ele>298.84000000000003</ele>
   </trkpt>
   <trkpt lat="-33.93273" lon="23.604920000000003">
    <ele>297.69</ele>
   </trkpt>
   <trkpt lat="-33.93298" lon="23.604770000000002">
    <ele>295.75</ele>
   </trkpt>
   <trkpt lat="-33.93327" lon="23.604840000000003">
    <ele>294.21000000000004</ele>
   </trkpt>
   <trkpt lat="-33.93365" lon="23.604650000000003">
    <ele>289.93</ele>
   </trkpt>
   <trkpt lat="-33.93394" lon="23.60435">
    <ele>290.07000000000005</ele>
   </trkpt>
   <trkpt lat="-33.93435" lon="23.60413">
    <ele>286.46999999999997</ele>
   </trkpt>
   <trkpt lat="-33.93457" lon="23.603920000000002">
    <ele>285.32</ele>
   </trkpt>
   <trkpt lat="-33.93473" lon="23.603610000000003">
    <ele>282.72</ele>
   </trkpt>
   <trkpt lat="-33.93468" lon="23.603340000000003">
    <ele>282.33000000000004</ele>
   </trkpt>
   <trkpt lat="-33.9347" lon="23.602970000000003">
    <ele>282.69</ele>
   </trkpt>
   <trkpt lat="-33.93473" lon="23.60293">
    <ele>282.59</ele>
   </trkpt>
   <trkpt lat="-33.93477" lon="23.602590000000003">
    <ele>282.94</ele>
   </trkpt>
   <trkpt lat="-33.934760000000004" lon="23.60244">
    <ele>284.02000000000004</ele>
   </trkpt>
   <trkpt lat="-33.934760000000004" lon="23.602380000000004">
    <ele>284.34000000000003</ele>
   </trkpt>
   <trkpt lat="-33.93477" lon="23.602100000000004">
    <ele>284.92</ele>
   </trkpt>
   <trkpt lat="-33.93493" lon="23.60181">
    <ele>283.46999999999997</ele>
   </trkpt>
   <trkpt lat="-33.9352" lon="23.601750000000003">
    <ele>280.79</ele>
   </trkpt>
   <trkpt lat="-33.93542" lon="23.601630000000004">
    <ele>279.11</ele>
   </trkpt>
   <trkpt lat="-33.93571" lon="23.6014">
    <ele>275.47</ele>
   </trkpt>
   <trkpt lat="-33.93625" lon="23.60114">
    <ele>271.62</ele>
   </trkpt>
   <trkpt lat="-33.93656" lon="23.601210000000002">
    <ele>269.68</ele>
   </trkpt>
   <trkpt lat="-33.93688" lon="23.601470000000003">
    <ele>268.91</ele>
   </trkpt>
   <trkpt lat="-33.9371" lon="23.60162">
    <ele>266.96000000000004</ele>
   </trkpt>
   <trkpt lat="-33.93723" lon="23.60168">
    <ele>266.43</ele>
   </trkpt>
   <trkpt lat="-33.93741" lon="23.60172">
    <ele>265.46000000000004</ele>
   </trkpt>
   <trkpt lat="-33.937630000000006" lon="23.60171">
    <ele>265.0</ele>
   </trkpt>
   <trkpt lat="-33.93788" lon="23.601730000000003">
    <ele>264.61</ele>
   </trkpt>
   <trkpt lat="-33.93806" lon="23.6018">
    <ele>264.88</ele>
   </trkpt>
   <trkpt lat="-33.93829" lon="23.601960000000002">
    <ele>264.76</ele>
   </trkpt>
   <trkpt lat="-33.93858" lon="23.602110000000003">
    <ele>264.99</ele>
   </trkpt>
   <trkpt lat="-33.93898" lon="23.602110000000003">
    <ele>266.19000000000005</ele>
   </trkpt>
   <trkpt lat="-33.93914" lon="23.60219">
    <ele>267.57000000000005</ele>
   </trkpt>
   <trkpt lat="-33.9392" lon="23.60234">
    <ele>268.43</ele>
   </trkpt>
   <trkpt lat="-33.9392" lon="23.602490000000003">
    <ele>268.66</ele>
   </trkpt>
   <trkpt lat="-33.93914" lon="23.602950000000003">
    <ele>268.11</ele>
   </trkpt>
   <trkpt lat="-33.93914" lon="23.6031">
    <ele>267.19000000000005</ele>
   </trkpt>
   <trkpt lat="-33.93916" lon="23.603150000000003">
    <ele>266.79</ele>
   </trkpt>
   <trkpt lat="-33.9392" lon="23.60321">
    <ele>266.34000000000003</ele>
   </trkpt>
   <trkpt lat="-33.93947" lon="23.603440000000003">
    <ele>263.16</ele>
   </trkpt>
   <trkpt lat="-33.93976" lon="23.603600000000004">
    <ele>263.66</ele>
   </trkpt>
   <trkpt lat="-33.93992" lon="23.603740000000002">
    <ele>264.74</ele>
   </trkpt>
   <trkpt lat="-33.94014" lon="23.604020000000002">
    <ele>265.57000000000005</ele>
   </trkpt>
   <trkpt lat="-33.94023" lon="23.604070000000004">
    <ele>265.56</ele>
   </trkpt>
   <trkpt lat="-33.94077" lon="23.603900000000003">
    <ele>265.5</ele>
   </trkpt>
   <trkpt lat="-33.94131" lon="23.603810000000003">
    <ele>265.57000000000005</ele>
   </trkpt>
   <trkpt lat="-33.94158" lon="23.603720000000003">
    <ele>265.51</ele>
   </trkpt>
   <trkpt lat="-33.94205" lon="23.60366">
    <ele>265.31000000000006</ele>
   </trkpt>
   <trkpt lat="-33.94245" lon="23.603700000000003">
    <ele>265.08000000000004</ele>
   </trkpt>
   <trkpt lat="-33.94274" lon="23.603620000000003">
    <ele>264.99</ele>
   </trkpt>
   <trkpt lat="-33.94294" lon="23.603320000000004">
    <ele>264.51</ele>
   </trkpt>
   <trkpt lat="-33.94301" lon="23.60312">
    <ele>264.14000000000004</ele>
   </trkpt>
   <trkpt lat="-33.94326" lon="23.602700000000002">
    <ele>263.27</ele>
   </trkpt>
   <trkpt lat="-33.94355" lon="23.602300000000003">
    <ele>261.22</ele>
   </trkpt>
   <trkpt lat="-33.94415" lon="23.60181">
    <ele>258.52000000000004</ele>
   </trkpt>
   <trkpt lat="-33.94437" lon="23.601750000000003">
    <ele>258.09999999999997</ele>
   </trkpt>
   <trkpt lat="-33.9448" lon="23.601820000000004">
    <ele>258.15000000000003</ele>
   </trkpt>
   <trkpt lat="-33.94568" lon="23.602030000000003">
    <ele>257.43000000000006</ele>
   </trkpt>
   <trkpt lat="-33.94603" lon="23.602140000000002">
    <ele>256.83</ele>
   </trkpt>
   <trkpt lat="-33.946725000111066" lon="23.602125000120108">
    <ele>255.12</ele>
   </trkpt>
   <trkpt lat="-33.94742" lon="23.602110000000003">
    <ele>253.04999999999998</ele>
   </trkpt>
   <trkpt lat="-33.94782" lon="23.60219">
    <ele>251.65000000000003</ele>
   </trkpt>
   <trkpt lat="-33.94847" lon="23.602500000000003">
    <ele>249.89000000000001</ele>
   </trkpt>
   <trkpt lat="-33.9487" lon="23.602590000000003">
    <ele>249.92000000000002</ele>
   </trkpt>
   <trkpt lat="-33.94928" lon="23.602690000000003">
    <ele>249.48</ele>
   </trkpt>
   <trkpt lat="-33.94979" lon="23.60282">
    <ele>249.38000000000002</ele>
   </trkpt>
   <trkpt lat="-33.95042" lon="23.60291">
    <ele>249.13000000000002</ele>
   </trkpt>
   <trkpt lat="-33.951" lon="23.602780000000003">
    <ele>248.67000000000002</ele>
   </trkpt>
   <trkpt lat="-33.95118" lon="23.602780000000003">
    <ele>248.67000000000002</ele>
   </trkpt>
   <trkpt lat="-33.95136" lon="23.60282">
    <ele>248.44000000000003</ele>
   </trkpt>
   <trkpt lat="-33.952025001062474" lon="23.603114993087182">
    <ele>248.08</ele>
   </trkpt>
   <trkpt lat="-33.95269000142132" lon="23.60340999078485">
    <ele>246.81000000000003</ele>
   </trkpt>
   <trkpt lat="-33.953355001076496" lon="23.603704993093206">
    <ele>246.14000000000001</ele>
   </trkpt>
   <trkpt lat="-33.95402" lon="23.604000000000003">
    <ele>244.84000000000003</ele>
   </trkpt>
   <trkpt lat="-33.95467750073024" lon="23.604249994194">
    <ele>244.43</ele>
   </trkpt>
   <trkpt lat="-33.95533500095514" lon="23.60449999225151">
    <ele>243.62000000000003</ele>
   </trkpt>
   <trkpt lat="-33.95599250067465" lon="23.604749994172693">
    <ele>242.14000000000001</ele>
   </trkpt>
   <trkpt lat="-33.95665" lon="23.605">
    <ele>240.99</ele>
   </trkpt>
   <trkpt lat="-33.95664" lon="23.605010000000004">
    <ele>243.11</ele>
   </trkpt>
   <trkpt lat="-33.95675" lon="23.60566">
    <ele>242.40000000000003</ele>
   </trkpt>
  </trkseg>
 </trk>
</gpx>
